{
  "type": "FeatureCollection",
  "features": [
    {
      "type": "Feature",
      "properties": {
        "norad_id": 27954,
        "name": "GALAXY 13 (HORIZONS-1)",
        "group": "intelsat",
        "lat": -0.9693558506023626,
        "lon": 2.451347531053046,
        "alt_km": 35786.03251921723,
        "timestamp": "2025-12-26T03:50:11.755225+00:00",
        "meta_object_name": "GALAXY 13 (HORIZONS-1)",
        "meta_object_id": "2003-044A",
        "meta_epoch": "2025-12-25T17:29:16.765728",
        "meta_mean_motion": 1.00272154,
        "meta_eccentricity": 0.0002307,
        "meta_inclination": 0.9704,
        "meta_ra_of_asc_node": 86.3013,
        "meta_arg_of_pericenter": 186.2306,
        "meta_mean_anomaly": 294.243,
        "meta_ephemeris_type": 0,
        "meta_classification_type": "U",
        "meta_norad_cat_id": 27954,
        "meta_element_set_no": 999,
        "meta_rev_at_epoch": 4483,
        "meta_bstar": 0,
        "meta_mean_motion_dot": 1.54e-06,
        "meta_mean_motion_ddot": 0,
        "tle_line1": "1 27954U 03044A   25359.72866627  .00000154  00000+0  00000+0 0  9994",
        "tle_line2": "2 27954   0.9704  86.3013 0002307 186.2306 294.2430  1.00272154 44833"
      },
      "geometry": {
        "type": "Point",
        "coordinates": [
          2.451347531053046,
          -0.9693558506023626
        ]
      }
    },
    {
      "type": "Feature",
      "properties": {
        "norad_id": 28358,
        "name": "INTELSAT 10-02",
        "group": "intelsat",
        "lat": 0.030203111169485874,
        "lon": 151.48531536761095,
        "alt_km": 35791.08080420987,
        "timestamp": "2025-12-26T03:50:11.755238+00:00",
        "meta_object_name": "INTELSAT 10-02",
        "meta_object_id": "2004-022A",
        "meta_epoch": "2025-12-25T02:23:21.556320",
        "meta_mean_motion": 1.00270312,
        "meta_eccentricity": 0.0001221,
        "meta_inclination": 0.0162,
        "meta_ra_of_asc_node": 46.3363,
        "meta_arg_of_pericenter": 259.2593,
        "meta_mean_anomaly": 183.1536,
        "meta_ephemeris_type": 0,
        "meta_classification_type": "U",
        "meta_norad_cat_id": 28358,
        "meta_element_set_no": 999,
        "meta_rev_at_epoch": 7881,
        "meta_bstar": 0,
        "meta_mean_motion_dot": 1e-07,
        "meta_mean_motion_ddot": 0,
        "tle_line1": "1 28358U 04022A   25359.09955505  .00000010  00000+0  00000+0 0  9995",
        "tle_line2": "2 28358   0.0162  46.3363 0001221 259.2593 183.1536  1.00270312 78810"
      },
      "geometry": {
        "type": "Point",
        "coordinates": [
          151.48531536761095,
          0.030203111169485874
        ]
      }
    },
    {
      "type": "Feature",
      "properties": {
        "norad_id": 28626,
        "name": "XM-3 (RHYTHM)",
        "group": "intelsat",
        "lat": 0.17396562388849224,
        "lon": -157.0702805434309,
        "alt_km": 36168.88041441404,
        "timestamp": "2025-12-26T03:50:11.755250+00:00",
        "meta_object_name": "XM-3 (RHYTHM)",
        "meta_object_id": "2005-008A",
        "meta_epoch": "2025-12-25T17:26:19.235328",
        "meta_mean_motion": 0.9895028,
        "meta_eccentricity": 0.0002212,
        "meta_inclination": 0.2062,
        "meta_ra_of_asc_node": 82.2629,
        "meta_arg_of_pericenter": 272.7612,
        "meta_mean_anomaly": 53.5894,
        "meta_ephemeris_type": 0,
        "meta_classification_type": "U",
        "meta_norad_cat_id": 28626,
        "meta_element_set_no": 999,
        "meta_rev_at_epoch": 4087,
        "meta_bstar": 0,
        "meta_mean_motion_dot": 9.1e-07,
        "meta_mean_motion_ddot": 0,
        "tle_line1": "1 28626U 05008A   25359.72661152  .00000091  00000+0  00000+0 0  9999",
        "tle_line2": "2 28626   0.2062  82.2629 0002212 272.7612  53.5894  0.98950280 40873"
      },
      "geometry": {
        "type": "Point",
        "coordinates": [
          -157.0702805434309,
          0.17396562388849224
        ]
      }
    },
    {
      "type": "Feature",
      "properties": {
        "norad_id": 28659,
        "name": "DIRECTV 8",
        "group": "intelsat",
        "lat": 0.003520848959204836,
        "lon": 33.444176579609994,
        "alt_km": 35790.35906101895,
        "timestamp": "2025-12-26T03:50:11.755261+00:00",
        "meta_object_name": "DIRECTV 8",
        "meta_object_id": "2005-019A",
        "meta_epoch": "2025-12-25T07:36:38.659104",
        "meta_mean_motion": 1.00271727,
        "meta_eccentricity": 0.0003055,
        "meta_inclination": 0.0173,
        "meta_ra_of_asc_node": 36.9805,
        "meta_arg_of_pericenter": 247.0732,
        "meta_mean_anomaly": 165.1455,
        "meta_ephemeris_type": 0,
        "meta_classification_type": "U",
        "meta_norad_cat_id": 28659,
        "meta_element_set_no": 999,
        "meta_rev_at_epoch": 7533,
        "meta_bstar": 0,
        "meta_mean_motion_dot": 2.2e-07,
        "meta_mean_motion_ddot": 0,
        "tle_line1": "1 28659U 05019A   25359.31711411  .00000022  00000+0  00000+0 0  9990",
        "tle_line2": "2 28659   0.0173  36.9805 0003055 247.0732 165.1455  1.00271727 75334"
      },
      "geometry": {
        "type": "Point",
        "coordinates": [
          33.444176579609994,
          0.003520848959204836
        ]
      }
    },
    {
      "type": "Feature",
      "properties": {
        "norad_id": 28702,
        "name": "GALAXY 28 (G-28)",
        "group": "intelsat",
        "lat": -0.48375406118496644,
        "lon": 71.0623071770799,
        "alt_km": 35709.07542088161,
        "timestamp": "2025-12-26T03:50:11.755273+00:00",
        "meta_object_name": "GALAXY 28 (G-28)",
        "meta_object_id": "2005-022A",
        "meta_epoch": "2025-12-25T06:15:34.001280",
        "meta_mean_motion": 1.00599998,
        "meta_eccentricity": 0.0003524,
        "meta_inclination": 2.8519,
        "meta_ra_of_asc_node": 81.1358,
        "meta_arg_of_pericenter": 159.6201,
        "meta_mean_anomaly": 224.7014,
        "meta_ephemeris_type": 0,
        "meta_classification_type": "U",
        "meta_norad_cat_id": 28702,
        "meta_element_set_no": 999,
        "meta_rev_at_epoch": 5023,
        "meta_bstar": 0,
        "meta_mean_motion_dot": -2.29e-06,
        "meta_mean_motion_ddot": 0,
        "tle_line1": "1 28702U 05022A   25359.26081020 -.00000229  00000+0  00000+0 0  9993",
        "tle_line2": "2 28702   2.8519  81.1358 0003524 159.6201 224.7014  1.00599998 50230"
      },
      "geometry": {
        "type": "Point",
        "coordinates": [
          71.0623071770799,
          -0.48375406118496644
        ]
      }
    },
    {
      "type": "Feature",
      "properties": {
        "norad_id": 29236,
        "name": "GALAXY 16 (G-16)",
        "group": "intelsat",
        "lat": -0.003655983799798678,
        "lon": 53.45342445700926,
        "alt_km": 35794.94788366646,
        "timestamp": "2025-12-26T03:50:11.755286+00:00",
        "meta_object_name": "GALAXY 16 (G-16)",
        "meta_object_id": "2006-023A",
        "meta_epoch": "2025-12-25T10:42:38.666304",
        "meta_mean_motion": 1.00269688,
        "meta_eccentricity": 0.0002737,
        "meta_inclination": 0.0046,
        "meta_ra_of_asc_node": 247.0299,
        "meta_arg_of_pericenter": 30.9577,
        "meta_mean_anomaly": 237.8648,
        "meta_ephemeris_type": 0,
        "meta_classification_type": "U",
        "meta_norad_cat_id": 29236,
        "meta_element_set_no": 999,
        "meta_rev_at_epoch": 7123,
        "meta_bstar": 0,
        "meta_mean_motion_dot": 0,
        "meta_mean_motion_ddot": 0,
        "tle_line1": "1 29236U 06023A   25359.44628086  .00000000  00000+0  00000+0 0  9993",
        "tle_line2": "2 29236   0.0046 247.0299 0002737  30.9577 237.8648  1.00269688 71238"
      },
      "geometry": {
        "type": "Point",
        "coordinates": [
          53.45342445700926,
          -0.003655983799798678
        ]
      }
    },
    {
      "type": "Feature",
      "properties": {
        "norad_id": 29494,
        "name": "DIRECTV 9S",
        "group": "intelsat",
        "lat": -1.0279728489663278,
        "lon": 51.29066397238846,
        "alt_km": 35794.822334150784,
        "timestamp": "2025-12-26T03:50:11.755298+00:00",
        "meta_object_name": "DIRECTV 9S",
        "meta_object_id": "2006-043A",
        "meta_epoch": "2025-12-25T16:00:17.788320",
        "meta_mean_motion": 1.00271625,
        "meta_eccentricity": 0.0003043,
        "meta_inclination": 1.9716,
        "meta_ra_of_asc_node": 83.0746,
        "meta_arg_of_pericenter": 196.6277,
        "meta_mean_anomaly": 313.5922,
        "meta_ephemeris_type": 0,
        "meta_classification_type": "U",
        "meta_norad_cat_id": 29494,
        "meta_element_set_no": 999,
        "meta_rev_at_epoch": 4964,
        "meta_bstar": 0,
        "meta_mean_motion_dot": -9.2e-07,
        "meta_mean_motion_ddot": 0,
        "tle_line1": "1 29494U 06043A   25359.66687255 -.00000092  00000+0  00000+0 0  9990",
        "tle_line2": "2 29494   1.9716  83.0746 0003043 196.6277 313.5922  1.00271625 49642"
      },
      "geometry": {
        "type": "Point",
        "coordinates": [
          51.29066397238846,
          -1.0279728489663278
        ]
      }
    }
  ]
}